CCSDS_OMM_VERS = 2.0
CREATION_DATE  = 
ORIGINATOR     = 

OBJECT_NAME    = STARLINK-35902
OBJECT_ID      = 2025-271K
CENTER_NAME    = EARTH
REF_FRAME      = TEME
TIME_SYSTEM    = UTC
MEAN_ELEMENT_THEORY = SGP/SGP4

EPOCH          = 2025-12-14T06:00:02.999808
MEAN_MOTION    = 15.49356601
ECCENTRICITY   = .00006554
INCLINATION    = 53.1601
RA_OF_ASC_NODE = 179.9749
ARG_OF_PERICENTER = 96.4948
MEAN_ANOMALY   = 157.6832

EPHEMERIS_TYPE = 0
CLASSIFICATION_TYPE = U
NORAD_CAT_ID   = 66626
ELEMENT_SET_NO = 999
REV_AT_EPOCH   = 448
BSTAR          = -.1891062E-2
MEAN_MOTION_DOT = -.104399E-2
MEAN_MOTION_DDOT = 0

CCSDS_OMM_VERS = 2.0
CREATION_DATE  = 
ORIGINATOR     = 

OBJECT_NAME    = STARLINK-35904
OBJECT_ID      = 2025-271L
CENTER_NAME    = EARTH
REF_FRAME      = TEME
TIME_SYSTEM    = UTC
MEAN_ELEMENT_THEORY = SGP/SGP4

EPOCH          = 2025-12-14T06:00:02.999808
MEAN_MOTION    = 15.49350675
ECCENTRICITY   = .00007211
INCLINATION    = 53.1601
RA_OF_ASC_NODE = 179.9708
ARG_OF_PERICENTER = 88.8041
MEAN_ANOMALY   = 167.2868

EPHEMERIS_TYPE = 0
CLASSIFICATION_TYPE = U
NORAD_CAT_ID   = 66627
ELEMENT_SET_NO = 999
REV_AT_EPOCH   = 432
BSTAR          = -.16335423E-2
MEAN_MOTION_DOT = -.90385E-3
MEAN_MOTION_DDOT = 0

CCSDS_OMM_VERS = 2.0
CREATION_DATE  = 
ORIGINATOR     = 

OBJECT_NAME    = STARLINK-35862
OBJECT_ID      = 2025-271M
CENTER_NAME    = EARTH
REF_FRAME      = TEME
TIME_SYSTEM    = UTC
MEAN_ELEMENT_THEORY = SGP/SGP4

EPOCH          = 2025-12-14T06:00:02.999808
MEAN_MOTION    = 15.49350243
ECCENTRICITY   = .000078
INCLINATION    = 53.1601
RA_OF_ASC_NODE = 179.9668
ARG_OF_PERICENTER = 88.1004
MEAN_ANOMALY   = 169.9119

EPHEMERIS_TYPE = 0
CLASSIFICATION_TYPE = U
NORAD_CAT_ID   = 66628
ELEMENT_SET_NO = 999
REV_AT_EPOCH   = 448
BSTAR          = -.17054899E-2
MEAN_MOTION_DOT = -.94299E-3
MEAN_MOTION_DDOT = 0

CCSDS_OMM_VERS = 2.0
CREATION_DATE  = 
ORIGINATOR     = 

OBJECT_NAME    = STARLINK-35956
OBJECT_ID      = 2025-271N
CENTER_NAME    = EARTH
REF_FRAME      = TEME
TIME_SYSTEM    = UTC
MEAN_ELEMENT_THEORY = SGP/SGP4

EPOCH          = 2025-12-14T06:00:02.999808
MEAN_MOTION    = 15.49349379
ECCENTRICITY   = .00007644
INCLINATION    = 53.1601
RA_OF_ASC_NODE = 179.9633
ARG_OF_PERICENTER = 91.6766
MEAN_ANOMALY   = 168.2510

EPHEMERIS_TYPE = 0
CLASSIFICATION_TYPE = U
NORAD_CAT_ID   = 66629
ELEMENT_SET_NO = 999
REV_AT_EPOCH   = 448
BSTAR          = -.16430753E-2
MEAN_MOTION_DOT = -.90901E-3
MEAN_MOTION_DDOT = 0

CCSDS_OMM_VERS = 2.0
CREATION_DATE  = 
ORIGINATOR     = 

OBJECT_NAME    = STARLINK-35949
OBJECT_ID      = 2025-271P
CENTER_NAME    = EARTH
REF_FRAME      = TEME
TIME_SYSTEM    = UTC
MEAN_ELEMENT_THEORY = SGP/SGP4

EPOCH          = 2025-12-14T06:00:02.999808
MEAN_MOTION    = 15.49263713
ECCENTRICITY   = .00009548
INCLINATION    = 53.1601
RA_OF_ASC_NODE = 179.9581
ARG_OF_PERICENTER = 90.4620
MEAN_ANOMALY   = 171.3373

EPHEMERIS_TYPE = 0
CLASSIFICATION_TYPE = U
NORAD_CAT_ID   = 66630
ELEMENT_SET_NO = 999
REV_AT_EPOCH   = 448
BSTAR          = .62381166E-3
MEAN_MOTION_DOT = .34343E-3
MEAN_MOTION_DDOT = 0

CCSDS_OMM_VERS = 2.0
CREATION_DATE  = 
ORIGINATOR     = 

OBJECT_NAME    = STARLINK-35965
OBJECT_ID      = 2025-271Q
CENTER_NAME    = EARTH
REF_FRAME      = TEME
TIME_SYSTEM    = UTC
MEAN_ELEMENT_THEORY = SGP/SGP4

EPOCH          = 2025-12-14T06:00:02.999808
MEAN_MOTION    = 15.49399835
ECCENTRICITY   = .00007796
INCLINATION    = 53.1600
RA_OF_ASC_NODE = 179.9549
ARG_OF_PERICENTER = 46.3904
MEAN_ANOMALY   = 217.3385

EPHEMERIS_TYPE = 0
CLASSIFICATION_TYPE = U
NORAD_CAT_ID   = 66631
ELEMENT_SET_NO = 999
REV_AT_EPOCH   = 448
BSTAR          = -.29275548E-2
MEAN_MOTION_DOT = -.160477E-2
MEAN_MOTION_DDOT = 0

CCSDS_OMM_VERS = 2.0
CREATION_DATE  = 
ORIGINATOR     = 

OBJECT_NAME    = STARLINK-35973
OBJECT_ID      = 2025-271R
CENTER_NAME    = EARTH
REF_FRAME      = TEME
TIME_SYSTEM    = UTC
MEAN_ELEMENT_THEORY = SGP/SGP4

EPOCH          = 2025-12-14T06:00:02.999808
MEAN_MOTION    = 15.47112562
ECCENTRICITY   = .00010212
INCLINATION    = 53.1600
RA_OF_ASC_NODE = 179.9544
ARG_OF_PERICENTER = 94.7509
MEAN_ANOMALY   = 168.9468

EPHEMERIS_TYPE = 0
CLASSIFICATION_TYPE = U
NORAD_CAT_ID   = 66632
ELEMENT_SET_NO = 999
REV_AT_EPOCH   = 442
BSTAR          = -.46085486E-1
MEAN_MOTION_DOT = -.2105455E-1
MEAN_MOTION_DDOT = 0

CCSDS_OMM_VERS = 2.0
CREATION_DATE  = 
ORIGINATOR     = 

OBJECT_NAME    = STARLINK-35948
OBJECT_ID      = 2025-271S
CENTER_NAME    = EARTH
REF_FRAME      = TEME
TIME_SYSTEM    = UTC
MEAN_ELEMENT_THEORY = SGP/SGP4

EPOCH          = 2025-12-14T06:00:02.999808
MEAN_MOTION    = 15.47096842
ECCENTRICITY   = .00011555
INCLINATION    = 53.1602
RA_OF_ASC_NODE = 179.9496
ARG_OF_PERICENTER = 95.1695
MEAN_ANOMALY   = 170.4327

EPHEMERIS_TYPE = 0
CLASSIFICATION_TYPE = U
NORAD_CAT_ID   = 66633
ELEMENT_SET_NO = 999
REV_AT_EPOCH   = 448
BSTAR          = -.46082102E-1
MEAN_MOTION_DOT = -.2104372E-1
MEAN_MOTION_DDOT = 0

CCSDS_OMM_VERS = 2.0
CREATION_DATE  = 
ORIGINATOR     = 

OBJECT_NAME    = STARLINK-35967
OBJECT_ID      = 2025-271T
CENTER_NAME    = EARTH
REF_FRAME      = TEME
TIME_SYSTEM    = UTC
MEAN_ELEMENT_THEORY = SGP/SGP4

EPOCH          = 2025-12-14T06:00:02.999808
MEAN_MOTION    = 15.49767212
ECCENTRICITY   = .00010819
INCLINATION    = 53.1602
RA_OF_ASC_NODE = 179.9418
ARG_OF_PERICENTER = 92.5831
MEAN_ANOMALY   = 176.8387

EPHEMERIS_TYPE = 0
CLASSIFICATION_TYPE = U
NORAD_CAT_ID   = 66634
ELEMENT_SET_NO = 999
REV_AT_EPOCH   = 441
BSTAR          = -.29331714E-1
MEAN_MOTION_DOT = -.1501587E-1
MEAN_MOTION_DDOT = 0

CCSDS_OMM_VERS = 2.0
CREATION_DATE  = 
ORIGINATOR     = 

OBJECT_NAME    = STARLINK-35955
OBJECT_ID      = 2025-271U
CENTER_NAME    = EARTH
REF_FRAME      = TEME
TIME_SYSTEM    = UTC
MEAN_ELEMENT_THEORY = SGP/SGP4

EPOCH          = 2025-12-14T06:00:02.999808
MEAN_MOTION    = 15.49280705
ECCENTRICITY   = .00001299
INCLINATION    = 53.1601
RA_OF_ASC_NODE = 179.9379
ARG_OF_PERICENTER = 34.9398
MEAN_ANOMALY   = 236.4756

EPHEMERIS_TYPE = 0
CLASSIFICATION_TYPE = U
NORAD_CAT_ID   = 66635
ELEMENT_SET_NO = 999
REV_AT_EPOCH   = 448
BSTAR          = .66081502E-3
MEAN_MOTION_DOT = .36439E-3
MEAN_MOTION_DDOT = 0

CCSDS_OMM_VERS = 2.0
CREATION_DATE  = 
ORIGINATOR     = 

OBJECT_NAME    = STARLINK-35968
OBJECT_ID      = 2025-271V
CENTER_NAME    = EARTH
REF_FRAME      = TEME
TIME_SYSTEM    = UTC
MEAN_ELEMENT_THEORY = SGP/SGP4

EPOCH          = 2025-12-14T06:00:02.999808
MEAN_MOTION    = 15.49364695
ECCENTRICITY   = .00005932
INCLINATION    = 53.1601
RA_OF_ASC_NODE = 179.9335
ARG_OF_PERICENTER = 80.0330
MEAN_ANOMALY   = 193.3134

EPHEMERIS_TYPE = 0
CLASSIFICATION_TYPE = U
NORAD_CAT_ID   = 66636
ELEMENT_SET_NO = 999
REV_AT_EPOCH   = 448
BSTAR          = -.21939225E-2
MEAN_MOTION_DOT = -.120829E-2
MEAN_MOTION_DDOT = 0

CCSDS_OMM_VERS = 2.0
CREATION_DATE  = 
ORIGINATOR     = 

OBJECT_NAME    = STARLINK-35953
OBJECT_ID      = 2025-271W
CENTER_NAME    = EARTH
REF_FRAME      = TEME
TIME_SYSTEM    = UTC
MEAN_ELEMENT_THEORY = SGP/SGP4

EPOCH          = 2025-12-14T06:00:02.999808
MEAN_MOTION    = 15.49449918
ECCENTRICITY   = .00007894
INCLINATION    = 53.1601
RA_OF_ASC_NODE = 179.9296
ARG_OF_PERICENTER = 38.4315
MEAN_ANOMALY   = 236.8157

EPHEMERIS_TYPE = 0
CLASSIFICATION_TYPE = U
NORAD_CAT_ID   = 66637
ELEMENT_SET_NO = 999
REV_AT_EPOCH   = 448
BSTAR          = -.51709214E-2
MEAN_MOTION_DOT = -.279372E-2
MEAN_MOTION_DDOT = 0

