STARLINK-35902          
1 66626U 25271K   25348.25003472 -.00104399  00000+0 -18911-2 0  9997
2 66626  53.1601 179.9749 0000655  96.4948 157.6832 15.49356601  4484
STARLINK-35904          
1 66627U 25271L   25348.25003472 -.00090385  00000+0 -16335-2 0  9995
2 66627  53.1601 179.9708 0000721  88.8041 167.2868 15.49350675  4327
STARLINK-35862          
1 66628U 25271M   25348.25003472 -.00094299  00000+0 -17055-2 0  9994
2 66628  53.1601 179.9668 0000780  88.1004 169.9119 15.49350243  4486
STARLINK-35956          
1 66629U 25271N   25348.25003472 -.00090901  00000+0 -16431-2 0  9998
2 66629  53.1601 179.9633 0000764  91.6766 168.2510 15.49349379  4480
STARLINK-35949          
1 66630U 25271P   25348.25003472  .00034343  00000+0  62381-3 0  9992
2 66630  53.1601 179.9581 0000954  90.4620 171.3373 15.49263713  4480
STARLINK-35965          
1 66631U 25271Q   25348.25003472 -.00160477  00000+0 -29276-2 0  9998
2 66631  53.1600 179.9549 0000779  46.3904 217.3385 15.49399835  4483
STARLINK-35973          
1 66632U 25271R   25348.25003472 -.02105455  00000+0 -46085-1 0  9992
2 66632  53.1600 179.9544 0001021  94.7509 168.9468 15.47112562  4423
STARLINK-35948          
1 66633U 25271S   25348.25003472 -.02104372  00000+0 -46082-1 0  9997
2 66633  53.1602 179.9496 0001155  95.1695 170.4327 15.47096842  4481
STARLINK-35967          
1 66634U 25271T   25348.25003472 -.01501587  00000+0 -29332-1 0  9995
2 66634  53.1602 179.9418 0001081  92.5831 176.8387 15.49767212  4414
STARLINK-35955          
1 66635U 25271U   25348.25003472  .00036439  00000+0  66082-3 0  9997
2 66635  53.1601 179.9379 0000129  34.9398 236.4756 15.49280705  4487
STARLINK-35968          
1 66636U 25271V   25348.25003472 -.00120829  00000+0 -21939-2 0  9998
2 66636  53.1601 179.9335 0000593  80.0330 193.3134 15.49364695  4485
STARLINK-35953          
1 66637U 25271W   25348.25003472 -.00279372  00000+0 -51709-2 0  9995
2 66637  53.1601 179.9296 0000789  38.4315 236.8157 15.49449918  4489
